[{"OBJECT_NAME":"STARLINK-3143","OBJECT_ID":"2021-115Q","EPOCH":"2026-03-09T11:59:14.120736","MEAN_MOTION":15.08834226,"ECCENTRICITY":0.00014039,"INCLINATION":53.2163,"RA_OF_ASC_NODE":150.1795,"ARG_OF_PERICENTER":77.1167,"MEAN_ANOMALY":282.9982,"EPHEMERIS_TYPE":0,"CLASSIFICATION_TYPE":"U","NORAD_CAT_ID":49738,"ELEMENT_SET_NO":999,"REV_AT_EPOCH":23550,"BSTAR":6.7137927e-5,"MEAN_MOTION_DOT":7.81e-6,"MEAN_MOTION_DDOT":0},{"OBJECT_NAME":"IRIDIUM 33 DEB","OBJECT_ID":"1997-051QE","EPOCH":"2026-03-07T09:35:18.798432","MEAN_MOTION":15.07266806,"ECCENTRICITY":0.0013423,"INCLINATION":86.3519,"RA_OF_ASC_NODE":312.8742,"ARG_OF_PERICENTER":171.2899,"MEAN_ANOMALY":188.8573,"EPHEMERIS_TYPE":0,"CLASSIFICATION_TYPE":"U","NORAD_CAT_ID":35484,"ELEMENT_SET_NO":999,"REV_AT_EPOCH":63287,"BSTAR":0.0040001,"MEAN_MOTION_DOT":0.00060878,"MEAN_MOTION_DDOT":0}]
